{
  "type": "FeatureCollection",
  "features": [
    {
      "type": "Feature",
      "properties": {
        "norad_id": 28899,
        "name": "INMARSAT 4-F2 (SOUTHPAN/PRN 122)",
        "group": "gnss",
        "lat": 3.8223302907934524,
        "lon": 171.71992322228593,
        "alt_km": 35781.33924360383,
        "timestamp": "2025-12-09T20:37:09.527999+00:00",
        "meta_object_name": "INMARSAT 4-F2 (SOUTHPAN/PRN 122)",
        "meta_object_id": "2005-044A",
        "meta_epoch": "2025-12-09T12:32:28.611168",
        "meta_mean_motion": 1.00277374,
        "meta_eccentricity": 0.00030891,
        "meta_inclination": 4.8484,
        "meta_ra_of_asc_node": 43.6799,
        "meta_arg_of_pericenter": 205.8718,
        "meta_mean_anomaly": 160.592,
        "meta_ephemeris_type": 0,
        "meta_classification_type": "U",
        "meta_norad_cat_id": 28899,
        "meta_element_set_no": 999,
        "meta_rev_at_epoch": 7362,
        "meta_bstar": 0,
        "meta_mean_motion_dot": -2.58e-06,
        "meta_mean_motion_ddot": 0,
        "tle_line1": "1 28899U 05044A   25343.52255337 -.00000258  00000+0  00000+0 0  9992",
        "tle_line2": "2 28899   4.8484  43.6799 0003089 205.8718 160.5920  1.00277374 73627"
      },
      "geometry": {
        "type": "Point",
        "coordinates": [
          171.71992322228593,
          3.8223302907934524
        ]
      }
    },
    {
      "type": "Feature",
      "properties": {
        "norad_id": 29486,
        "name": "GPS BIIRM-2 (PRN 31)",
        "group": "gnss",
        "lat": -41.56563843655072,
        "lon": 17.796634646590743,
        "alt_km": 20472.72984586127,
        "timestamp": "2025-12-09T20:37:09.528012+00:00",
        "meta_object_name": "GPS BIIRM-2 (PRN 31)",
        "meta_object_id": "2006-042A",
        "meta_epoch": "2025-12-09T13:14:35.270304",
        "meta_mean_motion": 2.00554233,
        "meta_eccentricity": 0.01073632,
        "meta_inclination": 54.6937,
        "meta_ra_of_asc_node": 158.8672,
        "meta_arg_of_pericenter": 51.886,
        "meta_mean_anomaly": 320.6455,
        "meta_ephemeris_type": 0,
        "meta_classification_type": "U",
        "meta_norad_cat_id": 29486,
        "meta_element_set_no": 999,
        "meta_rev_at_epoch": 14059,
        "meta_bstar": 0,
        "meta_mean_motion_dot": 6.7e-07,
        "meta_mean_motion_ddot": 0,
        "tle_line1": "1 29486U 06042A   25343.55179711  .00000067  00000+0  00000+0 0  9995",
        "tle_line2": "2 29486  54.6937 158.8672 0107363  51.8860 320.6455  2.00554233140598"
      },
      "geometry": {
        "type": "Point",
        "coordinates": [
          17.796634646590743,
          -41.56563843655072
        ]
      }
    },
    {
      "type": "Feature",
      "properties": {
        "norad_id": 29601,
        "name": "GPS BIIRM-3 (PRN 12)",
        "group": "gnss",
        "lat": -49.665577676599554,
        "lon": 165.88021443050374,
        "alt_km": 20399.144798862577,
        "timestamp": "2025-12-09T20:37:09.528025+00:00",
        "meta_object_name": "GPS BIIRM-3 (PRN 12)",
        "meta_object_id": "2006-052A",
        "meta_epoch": "2025-12-08T22:59:17.672352",
        "meta_mean_motion": 2.00573222,
        "meta_eccentricity": 0.0087721,
        "meta_inclination": 54.9712,
        "meta_ra_of_asc_node": 221.5484,
        "meta_arg_of_pericenter": 87.3994,
        "meta_mean_anomaly": 273.6864,
        "meta_ephemeris_type": 0,
        "meta_classification_type": "U",
        "meta_norad_cat_id": 29601,
        "meta_element_set_no": 999,
        "meta_rev_at_epoch": 13959,
        "meta_bstar": 0,
        "meta_mean_motion_dot": 1e-07,
        "meta_mean_motion_ddot": 0,
        "tle_line1": "1 29601U 06052A   25342.95784343  .00000010  00000+0  00000+0 0  9999",
        "tle_line2": "2 29601  54.9712 221.5484 0087721  87.3994 273.6864  2.00573222139595"
      },
      "geometry": {
        "type": "Point",
        "coordinates": [
          165.88021443050374,
          -49.665577676599554
        ]
      }
    },
    {
      "type": "Feature",
      "properties": {
        "norad_id": 32260,
        "name": "GPS BIIRM-4 (PRN 15)",
        "group": "gnss",
        "lat": 50.094585317501064,
        "lon": 148.3051848953846,
        "alt_km": 19752.318290394927,
        "timestamp": "2025-12-09T20:37:09.528038+00:00",
        "meta_object_name": "GPS BIIRM-4 (PRN 15)",
        "meta_object_id": "2007-047A",
        "meta_epoch": "2025-12-09T06:19:25.464288",
        "meta_mean_motion": 2.00564591,
        "meta_eccentricity": 0.016427,
        "meta_inclination": 53.953,
        "meta_ra_of_asc_node": 87.9021,
        "meta_arg_of_pericenter": 85.2089,
        "meta_mean_anomaly": 276.6577,
        "meta_ephemeris_type": 0,
        "meta_classification_type": "U",
        "meta_norad_cat_id": 32260,
        "meta_element_set_no": 999,
        "meta_rev_at_epoch": 13300,
        "meta_bstar": 0,
        "meta_mean_motion_dot": -1.5e-07,
        "meta_mean_motion_ddot": 0,
        "tle_line1": "1 32260U 07047A   25343.26348917 -.00000015  00000+0  00000+0 0  9993",
        "tle_line2": "2 32260  53.9530  87.9021 0164270  85.2089 276.6577  2.00564591133008"
      },
      "geometry": {
        "type": "Point",
        "coordinates": [
          148.3051848953846,
          50.094585317501064
        ]
      }
    },
    {
      "type": "Feature",
      "properties": {
        "norad_id": 32275,
        "name": "COSMOS 2433 (720)",
        "group": "gnss",
        "lat": 37.428792749628435,
        "lon": -17.467115627277934,
        "alt_km": 19137.742945804734,
        "timestamp": "2025-12-09T20:37:09.528050+00:00",
        "meta_object_name": "COSMOS 2433 (720)",
        "meta_object_id": "2007-052A",
        "meta_epoch": "2025-12-09T08:02:51.661824",
        "meta_mean_motion": 2.13103784,
        "meta_eccentricity": 0.00055818,
        "meta_inclination": 65.6852,
        "meta_ra_of_asc_node": 322.3203,
        "meta_arg_of_pericenter": 252.1603,
        "meta_mean_anomaly": 107.7768,
        "meta_ephemeris_type": 0,
        "meta_classification_type": "U",
        "meta_norad_cat_id": 32275,
        "meta_element_set_no": 999,
        "meta_rev_at_epoch": 14101,
        "meta_bstar": 0,
        "meta_mean_motion_dot": -4.9e-07,
        "meta_mean_motion_ddot": 0,
        "tle_line1": "1 32275U 07052A   25343.33532016 -.00000049  00000+0  00000+0 0  9995",
        "tle_line2": "2 32275  65.6852 322.3203 0005581 252.1603 107.7768  2.13103784141018"
      },
      "geometry": {
        "type": "Point",
        "coordinates": [
          -17.467115627277934,
          37.428792749628435
        ]
      }
    },
    {
      "type": "Feature",
      "properties": {
        "norad_id": 32276,
        "name": "COSMOS 2432 (719)",
        "group": "gnss",
        "lat": -12.42530689204132,
        "lon": -43.29553765368795,
        "alt_km": 19108.424724728626,
        "timestamp": "2025-12-09T20:37:09.528063+00:00",
        "meta_object_name": "COSMOS 2432 (719)",
        "meta_object_id": "2007-052B",
        "meta_epoch": "2025-12-09T13:28:48.375264",
        "meta_mean_motion": 2.13102958,
        "meta_eccentricity": 0.00112506,
        "meta_inclination": 65.7007,
        "meta_ra_of_asc_node": 322.4368,
        "meta_arg_of_pericenter": 311.4097,
        "meta_mean_anomaly": 166.6519,
        "meta_ephemeris_type": 0,
        "meta_classification_type": "U",
        "meta_norad_cat_id": 32276,
        "meta_element_set_no": 999,
        "meta_rev_at_epoch": 14104,
        "meta_bstar": 0,
        "meta_mean_motion_dot": -4.9e-07,
        "meta_mean_motion_ddot": 0,
        "tle_line1": "1 32276U 07052B   25343.56167101 -.00000049  00000+0  00000+0 0  9990",
        "tle_line2": "2 32276  65.7007 322.4368 0011250 311.4097 166.6519  2.13102958141044"
      },
      "geometry": {
        "type": "Point",
        "coordinates": [
          -43.29553765368795,
          -12.42530689204132
        ]
      }
    },
    {
      "type": "Feature",
      "properties": {
        "norad_id": 32384,
        "name": "GPS BIIRM-5 (PRN 29)",
        "group": "gnss",
        "lat": -17.37830345877232,
        "lon": 114.30984661264041,
        "alt_km": 20116.559802204996,
        "timestamp": "2025-12-09T20:37:09.528075+00:00",
        "meta_object_name": "GPS BIIRM-5 (PRN 29)",
        "meta_object_id": "2007-062A",
        "meta_epoch": "2025-12-09T04:27:19.804896",
        "meta_mean_motion": 2.00577042,
        "meta_eccentricity": 0.00322219,
        "meta_inclination": 55.1854,
        "meta_ra_of_asc_node": 281.7885,
        "meta_arg_of_pericenter": 162.5723,
        "meta_mean_anomaly": 272.1574,
        "meta_ephemeris_type": 0,
        "meta_classification_type": "U",
        "meta_norad_cat_id": 32384,
        "meta_element_set_no": 999,
        "meta_rev_at_epoch": 13170,
        "meta_bstar": 0,
        "meta_mean_motion_dot": -5.2e-07,
        "meta_mean_motion_ddot": 0,
        "tle_line1": "1 32384U 07062A   25343.18564589 -.00000052  00000+0  00000+0 0  9994",
        "tle_line2": "2 32384  55.1854 281.7885 0032221 162.5723 272.1574  2.00577042131702"
      },
      "geometry": {
        "type": "Point",
        "coordinates": [
          114.30984661264041,
          -17.37830345877232
        ]
      }
    }
  ]
}